OBJECT_NAME,OBJECT_ID,EPOCH,MEAN_MOTION,ECCENTRICITY,INCLINATION,RA_OF_ASC_NODE,ARG_OF_PERICENTER,MEAN_ANOMALY,EPHEMERIS_TYPE,CLASSIFICATION_TYPE,NORAD_CAT_ID,ELEMENT_SET_NO,REV_AT_EPOCH,BSTAR,MEAN_MOTION_DOT,MEAN_MOTION_DDOT
LEMUR-2-ROUNDTRIPPER,2025-009DG,2026-06-17T07:02:28.171104,15.03794198,.0005375,97.7257,250.9723,130.2402,229.9295,0,U,62711,999,7764,.50042E-3,.6819E-4,0
LEMUR-2-MYNAMEISJEFF,2025-009DH,2026-06-17T03:48:32.569920,15.03798285,.000358,97.7304,251.2189,151.3935,208.7488,0,U,62712,999,7762,.46411E-3,.6319E-4,0
LEMUR-2-LEIA-PHILIP,2025-052AN,2026-06-17T03:16:35.377248,14.97319583,.0002552,97.6841,60.0885,209.8598,150.2478,0,U,63246,999,6866,.68563E-4,.738E-5,0
LEMUR-2-LIA-MARTIN,2025-052AQ,2026-06-16T22:35:17.644416,14.97802884,.0002872,97.6897,60.3715,156.9919,203.1432,0,U,63248,999,6864,.25368E-3,.2922E-4,0
LEMUR-2-DELOITTE-1,2025-052BB,2026-06-17T12:27:10.321344,14.97606899,.0003419,97.6921,61.2684,96.4459,263.7152,0,U,63259,999,6874,.32889E-3,.3787E-4,0
LEMUR-2-EMERSONROSE,2025-052BD,2026-06-17T07:02:35.553984,14.99079589,.0001752,97.6884,61.6057,68.0465,292.0944,0,U,63261,999,6875,.22948E-3,.2727E-4,0
LEMUR-2-MARACHE-FRAN,2025-052BE,2026-06-16T22:26:41.577216,15.00100695,.0005407,97.6944,61.5682,23.9465,336.2009,0,U,63262,999,6872,.35663E-3,.4389E-4,0
LEMUR-2-THEFALCONER,2025-052BG,2026-06-17T00:15:24.048000,14.97388271,.0002688,97.6863,60.3894,34.1369,326.0026,0,U,63264,999,6866,.20901E-3,.2371E-4,0
LEMUR-2-UNTITLED-SC,2025-061A,2026-06-17T11:38:57.633792,15.13477906,.0016967,97.5635,143.8449,263.4216,96.5084,0,U,63351,999,6763,.19457E-3,.3425E-4,0
LEMUR-2-ESPERANZA,2025-061B,2026-06-17T11:06:00.490752,15.13572861,.0016491,97.5644,143.9159,262.7680,97.1676,0,U,63352,999,6763,.17516E-3,.3084E-4,0
LEMUR-2-KREMPEL-BRO2,2025-061C,2026-06-17T11:44:44.439072,15.14007853,.0017523,97.5690,144.4761,254.3944,105.5353,0,U,63353,999,6765,.18971E-3,.3389E-4,0
LEMUR-2-THERMORAPTOR,2025-061D,2026-06-17T11:18:53.750016,15.14088660,.0017212,97.5697,144.5341,253.2498,106.6845,0,U,63354,999,6765,.19553E-3,.3503E-4,0
LEMUR-2-NEUROSPICY,2025-061E,2026-06-17T12:13:14.029824,15.14203271,.0015032,97.5624,144.1975,256.9220,103.0334,0,U,63355,999,6766,.16407E-3,.2935E-4,0
LEMUR-2-TILLINFINITY,2025-061F,2026-06-17T11:28:42.693024,15.14789899,.0016386,97.5607,144.4573,243.8467,116.1079,0,U,63356,999,6768,.20825E-3,.3809E-4,0
LEMUR-2-KREMPEL-BRO1,2025-061G,2026-06-17T10:50:33.715968,15.14594749,.0016976,97.5610,144.3472,245.4775,114.4687,0,U,63357,999,6767,.15695E-3,.2839E-4,0
LEMUR-2-LANGER2SPACE,2025-061H,2026-06-17T11:28:48.451584,15.14291464,.0014962,97.5614,144.1874,255.2164,104.7410,0,U,63358,999,6766,.20298E-3,.3657E-4,0
LEMUR-2-BALTO,2025-052BH,2026-06-17T12:29:07.794240,15.00090169,.000691,97.6897,62.1246,56.9292,303.2594,0,U,63395,999,6881,.39594E-3,.4879E-4,0
LEMUR-2-KRISH,2025-135AK,2026-06-16T20:58:09.568704,14.96207333,.0001766,97.7754,282.7517,99.8626,260.2794,0,U,64561,999,5387,.42605E-3,.4747E-4,0
LEMUR-2-HUBBLE-4,2025-135AP,2026-06-17T01:39:53.438400,14.93197861,.0000965,97.7699,281.9767,308.5326,51.5807,0,U,64565,999,5385,.14733E-3,.1482E-4,0
LEMUR-2-SEJONG-2,2025-135BL,2026-06-17T12:07:54.605568,14.96697841,.0003815,97.7688,283.5240,337.4806,22.6247,0,U,64586,999,5399,.28209E-3,.3163E-4,0
LEMUR-2-HUBBLE-5,2025-135BT,2026-06-16T21:20:58.729632,14.94135511,.0005122,97.7719,282.4325,355.2273,4.8897,0,U,64840,999,5386,.10441E-3,.106E-4,0
LEMUR-2-KARENDARRELL,2025-135BU,2026-06-17T07:38:20.120352,15.00111435,.0009688,97.7684,284.5256,201.5473,158.5344,0,U,64841,999,5403,.48255E-3,.5965E-4,0
LEMUR-2-LUCILLE-ROSE,2025-135BV,2026-06-17T07:00:28.185696,15.00154719,.001127,97.7770,284.5194,282.5666,77.4297,0,U,65403,999,4865,.38975E-3,.4812E-4,0
LEMUR-2-AFFIE-WAUWIE,2025-248C,2026-06-16T03:21:25.708032,15.27115158,.00075209,45.3895,120.6606,77.2231,282.9498,0,U,66295,999,3443,.50637182E-3,.13448E-3,0
LEMUR-2-DEANANDMAEVE,2025-276N,2026-06-17T10:42:45.736416,15.19735426,.0005694,97.4210,241.9176,13.8580,346.2810,0,U,66678,999,3045,.23164E-3,.4885E-4,0
LEMUR-2-STAS-GORBUK,2025-276W,2026-06-17T03:09:33.391008,15.19381148,.0005087,97.4247,241.6633,16.0067,344.1327,0,U,66686,999,3040,.20761E-3,.4325E-4,0
LEMUR-2-TEODOR,2025-276DG,2026-06-17T10:39:57.068928,15.21052231,.0002149,97.4152,242.2073,116.5925,243.5531,0,U,66768,999,3048,.19934E-3,.4358E-4,0
LEMUR-2-LAILA,2025-276DQ,2026-06-17T03:43:27.836256,15.21271363,.0002227,97.4175,242.0432,135.7815,224.3599,0,U,66776,999,3044,.22188E-3,.489E-4,0
LEMUR-2-CELIJO-SB-PK,2025-276DW,2026-06-17T02:28:43.211424,14.99975195,.000874,97.5252,238.8839,132.8424,227.3535,0,U,66781,999,2261,.37465E-3,.4603E-4,0
LEMUR-2-FINNIAN,2025-276DX,2026-06-17T03:31:38.595072,15.00377587,.0008874,97.5286,239.1394,89.5806,270.6435,0,U,66782,999,1999,.43308E-3,.5387E-4,0
