LEMUR-2-ROUNDTRIPPER    
1 62711U 25009DG  26168.29338161  .00006819  00000+0  50042-3 0  9996
2 62711  97.7257 250.9723 0005375 130.2402 229.9295 15.03794198 77645
LEMUR-2-MYNAMEISJEFF    
1 62712U 25009DH  26168.15871030  .00006319  00000+0  46411-3 0  9999
2 62712  97.7304 251.2189 0003580 151.3935 208.7488 15.03798285 77628
LEMUR-2-LEIA-PHILIP     
1 63246U 25052AN  26168.13652057  .00000738  00000+0  68563-4 0  9996
2 63246  97.6841  60.0885 0002552 209.8598 150.2478 14.97319583 68663
LEMUR-2-LIA-MARTIN      
1 63248U 25052AQ  26167.94117644  .00002922  00000+0  25368-3 0  9996
2 63248  97.6897  60.3715 0002872 156.9919 203.1432 14.97802884 68642
LEMUR-2-DELOITTE-1      
1 63259U 25052BB  26168.51886946  .00003787  00000+0  32889-3 0  9996
2 63259  97.6921  61.2684 0003419  96.4459 263.7152 14.97606899 68742
LEMUR-2-EMERSONROSE     
1 63261U 25052BD  26168.29346706  .00002727  00000+0  22948-3 0  9997
2 63261  97.6884  61.6057 0001752  68.0465 292.0944 14.99079589 68758
LEMUR-2-MARACHE-FRAN    
1 63262U 25052BE  26167.93520344  .00004389  00000+0  35663-3 0  9994
2 63262  97.6944  61.5682 0005407  23.9465 336.2009 15.00100695 68726
LEMUR-2-THEFALCONER     
1 63264U 25052BG  26168.01069500  .00002371  00000+0  20901-3 0  9996
2 63264  97.6863  60.3894 0002688  34.1369 326.0026 14.97388271 68667
LEMUR-2-UNTITLED-SC     
1 63351U 25061A   26168.48538928  .00003425  00000+0  19457-3 0  9994
2 63351  97.5635 143.8449 0016967 263.4216  96.5084 15.13477906 67638
LEMUR-2-ESPERANZA       
1 63352U 25061B   26168.46250568  .00003084  00000+0  17516-3 0  9999
2 63352  97.5644 143.9159 0016491 262.7680  97.1676 15.13572861 67637
LEMUR-2-KREMPEL-BRO2    
1 63353U 25061C   26168.48940323  .00003389  00000+0  18971-3 0  9991
2 63353  97.5690 144.4761 0017523 254.3944 105.5353 15.14007853 67654
LEMUR-2-THERMORAPTOR    
1 63354U 25061D   26168.47145544  .00003503  00000+0  19553-3 0  9998
2 63354  97.5697 144.5341 0017212 253.2498 106.6845 15.14088660 67657
LEMUR-2-NEUROSPICY      
1 63355U 25061E   26168.50919016  .00002935  00000+0  16407-3 0  9999
2 63355  97.5624 144.1975 0015032 256.9220 103.0334 15.14203271 67660
LEMUR-2-TILLINFINITY    
1 63356U 25061F   26168.47827191  .00003809  00000+0  20825-3 0  9998
2 63356  97.5607 144.4573 0016386 243.8467 116.1079 15.14789899 67688
LEMUR-2-KREMPEL-BRO1    
1 63357U 25061G   26168.45177912  .00002839  00000+0  15695-3 0  9997
2 63357  97.5610 144.3472 0016976 245.4775 114.4687 15.14594749 67678
LEMUR-2-LANGER2SPACE    
1 63358U 25061H   26168.47833856  .00003657  00000+0  20298-3 0  9990
2 63358  97.5614 144.1874 0014962 255.2164 104.7410 15.14291464 67664
LEMUR-2-BALTO           
1 63395U 25052BH  26168.52022910  .00004879  00000+0  39594-3 0  9994
2 63395  97.6897  62.1246 0006910  56.9292 303.2594 15.00090169 68814
LEMUR-2-KRISH           
1 64561U 25135AK  26167.87372186  .00004747  00000+0  42605-3 0  9993
2 64561  97.7754 282.7517 0001766  99.8626 260.2794 14.96207333 53876
LEMUR-2-HUBBLE-4        
1 64565U 25135AP  26168.06936850  .00001482  00000+0  14733-3 0  9997
2 64565  97.7699 281.9767 0000965 308.5326  51.5807 14.93197861 53858
LEMUR-2-SEJONG-2        
1 64586U 25135BL  26168.50549312  .00003163  00000+0  28209-3 0  9993
2 64586  97.7688 283.5240 0003815 337.4806  22.6247 14.96697841 53992
LEMUR-2-HUBBLE-5        
1 64840U 25135BT  26167.88956863  .00001060  00000+0  10441-3 0  9992
2 64840  97.7719 282.4325 0005122 355.2273   4.8897 14.94135511 53869
LEMUR-2-KARENDARRELL    
1 64841U 25135BU  26168.31828843  .00005965  00000+0  48255-3 0  9990
2 64841  97.7684 284.5256 0009688 201.5473 158.5344 15.00111435 54034
LEMUR-2-LUCILLE-ROSE    
1 65403U 25135BV  26168.29199289  .00004812  00000+0  38975-3 0  9995
2 65403  97.7770 284.5194 0011270 282.5666  77.4297 15.00154719 48658
LEMUR-2-AFFIE-WAUWIE    
1 66295U 25248C   26167.13988088  .00013448  00000+0  50637-3 0  9999
2 66295  45.3895 120.6606 0007520  77.2231 282.9498 15.27115158 34433
LEMUR-2-DEANANDMAEVE    
1 66678U 25276N   26168.44636269  .00004885  00000+0  23164-3 0  9991
2 66678  97.4210 241.9176 0005694  13.8580 346.2810 15.19735426 30456
LEMUR-2-STAS-GORBUK     
1 66686U 25276W   26168.13163647  .00004325  00000+0  20761-3 0  9990
2 66686  97.4247 241.6633 0005087  16.0067 344.1327 15.19381148 30404
LEMUR-2-TEODOR          
1 66768U 25276DG  26168.44441052  .00004358  00000+0  19934-3 0  9990
2 66768  97.4152 242.2073 0002149 116.5925 243.5531 15.21052231 30488
LEMUR-2-LAILA           
1 66776U 25276DQ  26168.15518329  .00004890  00000+0  22188-3 0  9995
2 66776  97.4175 242.0432 0002227 135.7815 224.3599 15.21271363 30443
LEMUR-2-CELIJO-SB-PK    
1 66781U 25276DW  26168.10327791  .00004603  00000+0  37465-3 0  9993
2 66781  97.5252 238.8839 0008740 132.8424 227.3535 14.99975195 22611
LEMUR-2-FINNIAN         
1 66782U 25276DX  26168.14697448  .00005387  00000+0  43308-3 0  9990
2 66782  97.5286 239.1394 0008874  89.5806 270.6435 15.00377587 19990
